[{"OBJECT_NAME":"STARLINK-1994","OBJECT_ID":"2021-009AT","EPOCH":"2026-03-09T22:00:01.999584","MEAN_MOTION":15.57110467,"ECCENTRICITY":0.00093127,"INCLINATION":53.0487,"RA_OF_ASC_NODE":1.062,"ARG_OF_PERICENTER":99.8955,"MEAN_ANOMALY":322.2331,"EPHEMERIS_TYPE":0,"CLASSIFICATION_TYPE":"U","NORAD_CAT_ID":47589,"ELEMENT_SET_NO":999,"REV_AT_EPOCH":581,"BSTAR":0.0016353171,"MEAN_MOTION_DOT":0.00122261,"MEAN_MOTION_DDOT":0},{"OBJECT_NAME":"OBJECT D","OBJECT_ID":"2022-019D","EPOCH":"2026-03-09T23:54:04.101984","MEAN_MOTION":15.5899331,"ECCENTRICITY":0.00068562,"INCLINATION":97.3688,"RA_OF_ASC_NODE":157.042,"ARG_OF_PERICENTER":142.6655,"MEAN_ANOMALY":217.5079,"EPHEMERIS_TYPE":0,"CLASSIFICATION_TYPE":"U","NORAD_CAT_ID":51827,"ELEMENT_SET_NO":999,"REV_AT_EPOCH":22419,"BSTAR":0.00075591427,"MEAN_MOTION_DOT":0.00059056,"MEAN_MOTION_DDOT":0}]
